NORAD_CAT_ID,OBJECT_NAME,OBJECT_TYPE,EPOCH,MEAN_MOTION,ECCENTRICITY,INCLINATION,RA_OF_ASC_NODE,ARG_OF_PERICENTER,MEAN_ANOMALY,BSTAR,MEAN_MOTION_DOT,MEAN_MOTION_DDOT,TLE_LINE0,TLE_LINE1,TLE_LINE2,SEMIMAJOR_AXIS,PERIOD,APOGEE,PERIGEE,DECAYED
56813.0,STARLINK-6056,PAYLOAD,2024-03-13 19:15:13,14.98339136,0.0001855,70.0044,14.4995,269.6085,90.4861,4.0081e-05,3.86e-06,0.0,0 STARLINK-6056,1 56813U 23078AY  24073.80223830  .00000386  00000-0  40081-4 0  9999,2 56813  70.0044  14.4995 0001855 269.6085  90.4861 14.98339136 44213,6950.165,96.106,573.319,570.74,0.0
56813.0,STARLINK-6056,PAYLOAD,2024-03-13 22:27:29,14.98337083,0.0001883,70.0045,14.1615,265.0495,95.0449,-2.2286e-05,-3.59e-06,0.0,0 STARLINK-6056,1 56813U 23078AY  24073.93576033 -.00000359  00000-0 -22286-4 0  9998,2 56813  70.0045  14.1615 0001883 265.0495  95.0449 14.98337083 43970,6950.171,96.107,573.345,570.727,0.0
56813.0,STARLINK-6056,PAYLOAD,2024-03-14 06:28:10,14.98330375,0.0002303,70.0031,13.3212,254.1509,105.9396,-1.3915e-05,-2.59e-06,0.0,0 STARLINK-6056,1 56813U 23078AY  24074.26956216 -.00000259  00000-0 -13915-4 0  9998,2 56813  70.0031  13.3212 0002303 254.1509 105.9396 14.98330375 44286,6950.192,96.107,573.657,570.456,0.0
56813.0,STARLINK-6056,PAYLOAD,2024-03-14 22:29:31,14.98324518,0.0002507,70.0023,11.6381,249.9859,110.103,-4.1548e-05,-5.89e-06,0.0,0 STARLINK-6056,1 56813U 23078AY  24074.93716572 -.00000589  00000-0 -41548-4 0  9990,2 56813  70.0023  11.6381 0002507 249.9859 110.1030 14.98324518 44129,6950.21,96.107,573.817,570.332,0.0
56813.0,STARLINK-6056,PAYLOAD,2024-03-15 06:30:11,14.98322239,0.0002518,70.0023,10.7969,253.3895,106.6988,-1.5841e-05,-2.82e-06,0.0,0 STARLINK-6056,1 56813U 23078AY  24075.27096761 -.00000282  00000-0 -15841-4 0  9996,2 56813  70.0023  10.7969 0002518 253.3895 106.6988 14.98322239 44436,6950.217,96.107,573.832,570.332,0.0
56813.0,STARLINK-6056,PAYLOAD,2024-03-15 22:31:31,14.98329731,0.000287,70.0016,9.1133,262.012,98.0713,-1.7571e-06,-1.14e-06,0.0,0 STARLINK-6056,1 56813U 23078AY  24075.93856201 -.00000114  00000-0 -17571-5 0  9999,2 56813  70.0016   9.1133 0002870 262.0120  98.0713 14.98329731 44278,6950.194,96.107,574.053,570.064,0.0
56813.0,STARLINK-6056,PAYLOAD,2024-03-16 04:56:03,14.98332675,0.00029,70.0014,8.4396,267.2787,92.804,2.9427e-05,2.58e-06,0.0,0 STARLINK-6056,1 56813U 23078AY  24076.20559936  .00000258  00000-0  29427-4 0  9994,2 56813  70.0014   8.4396 0002900 267.2787  92.8040 14.98332675 44578,6950.185,96.107,574.065,570.034,0.0
56813.0,STARLINK-6056,PAYLOAD,2024-03-16 20:57:25,14.98323407,0.0002925,70.0024,6.7586,262.6318,97.4508,1.4762e-05,8.3e-07,0.0,0 STARLINK-6056,1 56813U 23078AY  24076.87320693  .00000083  00000-0  14762-4 0  9995,2 56813  70.0024   6.7586 0002925 262.6318  97.4508 14.98323407 44671,6950.213,96.107,574.111,570.045,0.0
56813.0,STARLINK-6056,PAYLOAD,2024-03-16 22:33:33,14.98323689,0.0002922,70.0023,6.59,262.7179,97.3648,1.4248e-05,7.7e-07,0.0,0 STARLINK-6056,1 56813U 23078AY  24076.93996697  .00000077  00000-0  14248-4 0  9997,2 56813  70.0023   6.5900 0002922 262.7179  97.3648 14.98323689 44420,6950.212,96.107,574.108,570.047,0.0
56813.0,STARLINK-6056,PAYLOAD,2024-03-17 04:58:05,14.98327534,0.0002825,70.0018,5.9152,263.8604,96.2233,5.5938e-05,5.75e-06,0.0,0 STARLINK-6056,1 56813U 23078AY  24077.20700389  .00000575  00000-0  55938-4 0  9993,2 56813  70.0018   5.9152 0002825 263.8604  96.2233 14.98327534 44468,6950.201,96.107,574.029,570.102,0.0
56813.0,STARLINK-6056,PAYLOAD,2024-03-17 20:59:25,14.98318797,0.0002609,70.0019,4.231,261.388,98.6983,0.00022267,2.564e-05,0.0,0 STARLINK-6056,1 56813U 23078AY  24077.87460269  .00002564  00000-0  22267-3 0  9994,2 56813  70.0019   4.2310 0002609 261.3880  98.6983 14.98318797 44825,6950.228,96.108,573.906,570.279,0.0
56813.0,STARLINK-6056,PAYLOAD,2024-03-17 22:35:33,14.98325831,0.0002638,70.0019,4.0632,259.0919,100.9943,0.00010476,1.157e-05,0.0,0 STARLINK-6056,1 56813U 23078AY  24077.94136262  .00001157  00000-0  10476-3 0  9991,2 56813  70.0019   4.0632 0002638 259.0919 100.9943 14.98325831 44571,6950.206,96.107,573.904,570.237,0.0
56813.0,STARLINK-6056,PAYLOAD,2024-03-18 03:23:57,14.98330198,0.0002679,70.0021,3.5587,266.5165,93.5688,0.00026342,3.051e-05,0.0,0 STARLINK-6056,1 56813U 23078AY  24078.14163556  .00003051  00000-0  26342-3 0  9994,2 56813  70.0021   3.5587 0002679 266.5165  93.5688 14.98330198 44865,6950.192,96.107,573.919,570.195,0.0
56813.0,STARLINK-6056,PAYLOAD,2024-03-18 05:00:05,14.9832449,0.0002776,70.0023,3.391,272.6568,87.4274,0.00042423,4.972e-05,0.0,0 STARLINK-6056,1 56813U 23078AY  24078.20839505  .00004972  00000-0  42423-3 0  9996,2 56813  70.0023   3.3910 0002776 272.6568  87.4274 14.98324490 44612,6950.21,96.107,574.004,570.146,0.0
56813.0,STARLINK-6056,PAYLOAD,2024-03-18 22:37:34,14.98331872,0.0002735,70.0033,1.5437,245.5528,114.5346,-3.062e-06,-1.29e-06,0.0,0 STARLINK-6056,1 56813U 23078AY  24078.94275898 -.00000129  00000-0 -30620-5 0  9996,2 56813  70.0033   1.5437 0002735 245.5528 114.5346 14.98331872 44723,6950.187,96.107,573.953,570.151,0.0
56813.0,STARLINK-6056,PAYLOAD,2024-03-19 05:02:06,14.98328025,0.0002651,70.0029,0.869,249.2707,110.8168,-3.6007e-05,-5.22e-06,0.0,0 STARLINK-6056,1 56813U 23078AY  24079.20980248 -.00000522  00000-0 -36007-4 0  9999,2 56813  70.0029   0.8690 0002651 249.2707 110.8168 14.98328025 44769,6950.199,96.107,573.906,570.222,0.0
56813.0,STARLINK-6056,PAYLOAD,2024-03-19 21:03:26,14.98339042,0.0002934,70.0016,359.1826,265.6676,94.4148,3.548e-06,-5.1e-07,0.0,0 STARLINK-6056,1 56813U 23078AY  24079.87739217 -.00000051  00000-0  35480-5 0  9991,2 56813  70.0016 359.1826 0002934 265.6676  94.4148 14.98339042 45124,6950.165,96.106,574.069,569.991,0.0
56813.0,STARLINK-6056,PAYLOAD,2024-03-20 01:51:50,14.98343772,0.0002695,70.0021,358.6778,259.298,100.7875,8.5507e-05,9.28e-06,0.0,0 STARLINK-6056,1 56813U 23078AY  24080.07766536  .00000928  00000-0  85507-4 0  9995,2 56813  70.0021 358.6778 0002695 259.2980 100.7875 14.98343772 45157,6950.15,96.106,573.888,570.142,0.0
56813.0,STARLINK-6056,PAYLOAD,2024-03-20 05:04:06,14.98345905,0.0002779,70.002,358.3402,266.228,93.8561,0.00010944,1.214e-05,0.0,0 STARLINK-6056,1 56813U 23078AY  24080.21118232  .00001214  00000-0  10944-3 0  9996,2 56813  70.0020 358.3402 0002779 266.2280  93.8561 14.98345905 44918,6950.144,96.106,573.94,570.077,0.0
56813.0,STARLINK-6056,PAYLOAD,2024-03-20 21:05:28,14.98321881,0.0002732,70.002,356.658,255.9524,104.1331,-8.6607e-05,-1.126e-05,0.0,0 STARLINK-6056,1 56813U 23078AY  24080.87880174 -.00001126  00000-0 -86607-4 0  9993,2 56813  70.0020 356.6580 0002732 255.9524 104.1331 14.98321881 45279,6950.218,96.108,573.982,570.184,0.0
56813.0,STARLINK-6056,PAYLOAD,2024-03-20 22:41:36,14.98318135,0.000316,70.0016,356.4889,264.0559,96.024,-0.00012236,-1.552e-05,0.0,0 STARLINK-6056,1 56813U 23078AY  24080.94556537 -.00001552  00000-0 -12236-3 0  9993,2 56813  70.0016 356.4889 0003160 264.0559  96.0240 14.98318135 45028,6950.23,96.108,574.291,569.898,0.0
56813.0,STARLINK-6056,PAYLOAD,2024-03-21 11:30:40,14.98327129,0.0003349,70.0011,355.1419,267.948,92.1295,-7.5932e-05,-9.99e-06,0.0,0 STARLINK-6056,1 56813U 23078AY  24081.47964060 -.00000999  00000-0 -75932-4 0  9993,2 56813  70.0011 355.1419 0003349 267.9480  92.1295 14.98327129 45101,6950.202,96.107,574.394,569.739,0.0
56813.0,STARLINK-6056,PAYLOAD,2024-03-21 19:31:21,14.98333163,0.0003332,70.0009,354.3004,263.6238,96.4542,-0.00012701,-1.608e-05,0.0,0 STARLINK-6056,1 56813U 23078AY  24081.81343892 -.00001608  00000-0 -12701-3 0  9997,2 56813  70.0009 354.3004 0003332 263.6238  96.4542 14.98333163 45416,6950.183,96.107,574.364,569.732,0.0
56813.0,STARLINK-6056,PAYLOAD,2024-03-21 22:43:37,14.98330156,0.0003314,70.0009,353.9626,266.1463,93.9317,-6.6029e-05,-8.81e-06,0.0,0 STARLINK-6056,1 56813U 23078AY  24081.94695829 -.00000881  00000-0 -66029-4 0  9996,2 56813  70.0009 353.9626 0003314 266.1463  93.9317 14.98330156 45173,6950.192,96.107,574.361,569.754,0.0
56813.0,STARLINK-6056,PAYLOAD,2024-03-22 03:32:00,14.98347444,0.0003075,70.0014,353.4597,258.527,101.5543,4.3452e-05,4.26e-06,0.0,0 STARLINK-6056,1 56813U 23078AY  24082.14722236  .00000426  00000-0  43452-4 0  9990,2 56813  70.0014 353.4597 0003075 258.5270 101.5543 14.98347444 45463,6950.139,96.106,574.141,569.867,0.0
56813.0,STARLINK-6056,PAYLOAD,2024-03-22 21:09:29,14.98323617,0.0003246,70.0009,351.607,263.7444,96.3345,9.722e-05,1.067e-05,0.0,0 STARLINK-6056,1 56813U 23078AY  24082.88159668  .00001067  00000-0  97220-4 0  9998,2 56813  70.0009 351.6070 0003246 263.7444  96.3345 14.98323617 45573,6950.213,96.107,574.334,569.822,0.0
56813.0,STARLINK-6056,PAYLOAD,2024-03-22 22:45:38,14.9832278,0.0003245,70.0015,351.4401,263.0047,97.0743,9.0249e-05,9.84e-06,0.0,0 STARLINK-6056,1 56813U 23078AY  24082.94835759  .00000984  00000-0  90249-4 0  9998,2 56813  70.0015 351.4401 0003245 263.0047  97.0743 14.98322780 45320,6950.215,96.107,574.336,569.825,0.0
56813.0,STARLINK-6056,PAYLOAD,2024-03-23 21:11:31,14.9832901,0.0003019,70.0018,349.0844,264.656,95.4255,-5.7342e-05,-7.77e-06,0.0,0 STARLINK-6056,1 56813U 23078AY  24083.88300069 -.00000777  00000-0 -57342-4 0  9992,2 56813  70.0018 349.0844 0003019 264.6560  95.4255 14.98329010 45720,6950.196,96.107,574.159,569.963,0.0
56813.0,STARLINK-6056,PAYLOAD,2024-03-24 03:36:02,14.98347975,0.0003134,70.0011,348.4107,267.2608,92.8192,2.7298e-05,2.33e-06,0.0,0 STARLINK-6056,1 56813U 23078AY  24084.15002526  .00000233  00000-0  27298-4 0  9992,2 56813  70.0011 348.4107 0003134 267.2608  92.8192 14.98347975 45763,6950.137,96.106,574.18,569.824,0.0
56813.0,STARLINK-6056,PAYLOAD,2024-03-24 21:13:32,14.98323494,0.0003018,70.0024,346.5622,268.0649,92.0164,-2.3126e-05,-3.69e-06,0.0,0 STARLINK-6056,1 56813U 23078AY  24084.88440365 -.00000369  00000-0 -23126-4 0  9997,2 56813  70.0024 346.5622 0003018 268.0649  92.0164 14.98323494 45876,6950.213,96.107,574.176,569.98,0.0
